     3.04           N: GNSS NAV DATA    M: Mixed            RINEX VERSION / TYPE
CONVBIN demo5 b34b                      20240616 015339 UTC PGM / RUN BY / DATE 
log: your_file_name.ubx                                     COMMENT             
format: u-blox UBX                                          COMMENT             
format: u-blox UBX                                          COMMENT             
log: your_file_name.ubx                                     COMMENT             
                                                            END OF HEADER       
G02 2024 06 16 02 00 00 -.416934955865D-03  .704858393874D-11  .000000000000D+00
      .270000000000D+02 -.577500000000D+02  .412267172583D-08 -.291001202676D+01
     -.293180346489D-05  .159751448082D-01  .703521072865D-05  .515370293427D+04
      .720000000000D+04  .132247805595D-06  .156337587233D+01  .158324837685D-06
      .967120058055D+00  .240093750000D+03 -.117456175246D+01 -.774496546604D-08
     -.421446126351D-10  .100000000000D+01  .231900000000D+04  .000000000000D+00
      .200000000000D+01  .000000000000D+00 -.176951289177D-07  .270000000000D+02
      .687600000000D+04  .400000000000D+01
G03 2024 06 16 02 00 00  .415433198214D-03  .178488335223D-10  .000000000000D+00
      .126000000000D+03 -.775000000000D+01  .409445626482D-08 -.167879863270D+00
     -.435858964920D-06  .559008156415D-02  .856816768646D-05  .515370879173D+04
      .720000000000D+04 -.502914190292D-07  .269854218450D+01  .335276126862D-07
      .984971962527D+00  .232937500000D+03  .110108616966D+01 -.784996983990D-08
      .373586989969D-09  .100000000000D+01  .231900000000D+04  .000000000000D+00
      .280000000000D+01  .000000000000D+00  .139698386192D-08  .126000000000D+03
      .687600000000D+04  .400000000000D+01
G21 2024 06 16 02 00 00  .115186441690D-03 -.250111042988D-11  .000000000000D+00
      .630000000000D+02 -.624687500000D+02  .415695886831D-08  .300018821066D+01
     -.296160578728D-05  .251684302930D-01  .730343163013D-05  .515368861580D+04
      .720000000000D+04 -.141561031342D-06  .155606672399D+01  .342726707458D-06
      .961382851763D+00  .233656250000D+03 -.560073873965D+00 -.772925052574D-08
     -.971469037013D-10  .100000000000D+01  .231900000000D+04  .000000000000D+00
      .200000000000D+01  .000000000000D+00 -.102445483208D-07  .630000000000D+02
      .687600000000D+04  .400000000000D+01
G32 2024 06 16 01 59 44 -.616088975221D-03  .125055521494D-11  .000000000000D+00
      .600000000000D+01 -.233750000000D+02  .488020328006D-08 -.241235764296D+01
     -.111386179924D-05  .777103658766D-02  .605732202530D-05  .515368207550D+04
      .718400000000D+04  .167638063431D-06 -.255163065814D+01  .111758708954D-07
      .962107734986D+00  .261500000000D+03 -.212900737647D+01 -.812390982202D-08
      .921466954226D-10  .100000000000D+01  .231900000000D+04  .000000000000D+00
      .200000000000D+01  .000000000000D+00  .931322574615D-09  .600000000000D+01
      .687600000000D+04  .400000000000D+01
G17 2024 06 16 02 00 00  .693917274475D-03 -.568434188608D-11  .000000000000D+00
      .590000000000D+02  .887500000000D+01  .428660712582D-08 -.313787916625D+01
      .532716512680D-06  .134007921442D-01  .387988984585D-05  .515374458694D+04
      .720000000000D+04  .141561031342D-06  .660554225226D+00  .298023223877D-07
      .968777852915D+00  .309281250000D+03 -.131848548515D+01 -.788675708652D-08
     -.817891211309D-10  .100000000000D+01  .231900000000D+04  .000000000000D+00
      .200000000000D+01  .000000000000D+00 -.111758708954D-07  .590000000000D+02
      .687600000000D+04  .400000000000D+01
G19 2024 06 16 02 00 00  .497023109347D-03  .534328137292D-11  .000000000000D+00
      .270000000000D+02 -.125000000000D+00  .432160858377D-08 -.115639651141D+01
     -.931322574615D-08  .992378953379D-02  .462494790554D-05  .515371082115D+04
      .720000000000D+04 -.162050127983D-06  .704863942355D+00 -.949949026108D-07
      .967944283656D+00  .296937500000D+03  .256344782658D+01 -.818355516363D-08
      .653598653579D-10  .100000000000D+01  .231900000000D+04  .000000000000D+00
      .200000000000D+01  .000000000000D+00 -.153668224812D-07  .270000000000D+02
      .687600000000D+04  .400000000000D+01
G22 2024 06 16 02 00 00 -.278218649328D-04 -.488853402203D-11  .000000000000D+00
      .510000000000D+02  .738437500000D+02  .427517807833D-08 -.261258895209D+01
      .379234552383D-05  .142652961658D-01  .766664743423D-05  .515370478821D+04
      .720000000000D+04  .949949026108D-07 -.356909845653D+00  .145286321640D-06
      .961353872819D+00  .232062500000D+03 -.113307134911D+01 -.772960768347D-08
     -.414302971667D-10  .100000000000D+01  .231900000000D+04  .000000000000D+00
      .200000000000D+01  .000000000000D+00 -.111758708954D-07  .510000000000D+02
      .687600000000D+04  .400000000000D+01
J03 2024 06 16 02 00 00  .613741576672D-06  .227373675443D-12  .000000000000D+00
      .500000000000D+01 -.547406250000D+03  .215401829494D-08  .291443719449D+01
     -.168979167938D-04  .748354307143D-01  .663101673126D-06  .649383982849D+04
      .720000000000D+04  .383704900742D-06  .153797198389D+01  .191852450371D-06
      .706825231274D+00  .163968750000D+03 -.154491123925D+01 -.224795077903D-08
     -.564309220030D-10  .200000000000D+01  .231900000000D+04  .100000000000D+01
      .280000000000D+01  .100000000000D+01  .465661287308D-09  .773000000000D+03
      .687600000000D+04  .100000000000D+01
R05 2024 06 16 01 45 00  .133160501719D-03  .909494701773D-12  .684000000000D+04
     -.918417431641D+04  .298390483856D+01  .000000000000D+00  .000000000000D+00
     -.846254492188D+04 -.614201545715D+00  .000000000000D+00  .100000000000D+01
      .222571943359D+05  .996459007263D+00 -.186264514923D-08  .000000000000D+00
R21 2024 06 16 01 45 00 -.109612010419D-03 -.363797880709D-11  .684000000000D+04
     -.108382739258D+05 -.214913940430D+01  .000000000000D+00  .000000000000D+00
      .350634570312D+04 -.227541351318D+01  .931322574615D-09  .400000000000D+01
      .228129106445D+05 -.673758506775D+00 -.931322574615D-09  .000000000000D+00
R20 2024 06 16 01 45 00 -.114579685032D-03  .000000000000D+00  .684000000000D+04
     -.182292109375D+05 -.128694057465D+01  .000000000000D+00  .000000000000D+00
     -.126196142578D+05 -.118006992340D+01 -.931322574615D-09  .200000000000D+01
      .126493271484D+05 -.302878665924D+01 -.931322574615D-09  .000000000000D+00
R14 2024 06 16 01 45 00  .265780836344D-04  .000000000000D+00  .684000000000D+04
      .123549433594D+05 -.669436454773D+00 -.931322574615D-09  .000000000000D+00
     -.160970703125D+05  .200925350189D+01 -.931322574615D-09 -.700000000000D+01
      .154890434570D+05  .262268447876D+01 -.186264514923D-08  .000000000000D+00
R22 2024 06 16 01 45 00  .102178193629D-03 -.454747350886D-11  .684000000000D+04
      .267708789062D+04 -.163101673126D+01 -.931322574615D-09  .000000000000D+00
      .168183735352D+05 -.202472686768D+01  .279396772385D-08 -.300000000000D+01
      .190081230469D+05  .202424049377D+01 -.931322574615D-09  .000000000000D+00
R12 2024 06 16 01 45 00  .413553789258D-04  .909494701773D-12  .684000000000D+04
      .311133837891D+04 -.553074836731D+00 -.931322574615D-09  .000000000000D+00
      .187015419922D+05  .227010250092D+01  .279396772385D-08 -.100000000000D+01
      .171000166016D+05 -.238510322571D+01  .000000000000D+00  .000000000000D+00
R13 2024 06 16 01 45 00 -.483943149447D-04  .000000000000D+00  .684000000000D+04
      .102729545898D+05 -.834710121155D+00 -.931322574615D-09  .000000000000D+00
      .425102197266D+04  .303090858459D+01  .931322574615D-09 -.200000000000D+01
      .229492363281D+05 -.187684059143D+00 -.186264514923D-08  .000000000000D+00
C21 2024 06 16 01 00 00 -.971484929323D-03  .643041175863D-11  .000000000000D+00
      .100000000000D+01 -.859375000000D+00  .382373070230D-08  .166755010052D+01
     -.945292413235D-07  .761971925385D-03  .655464828014D-05  .528262491035D+04
      .360000000000D+04  .544823706150D-07 -.309530890845D+01 -.209547579288D-07
      .978055835906D+00  .237234375000D+03 -.435023987650D+00 -.679314010441D-08
      .341442793891D-09  .000000000000D+00  .963000000000D+03  .000000000000D+00
      .200000000000D+01  .000000000000D+00  .111000000000D-07  .111000000000D-07
      .684000000000D+04  .100000000000D+01
C42 2024 06 16 01 00 00 -.446652644314D-03 -.188293824976D-11  .000000000000D+00
      .100000000000D+01 -.171875000000D+01  .386158942213D-08  .147079862147D+01
     -.814907252789D-07  .140834040940D-02  .668363645673D-05  .528262080002D+04
      .360000000000D+04 -.512227416039D-08 -.309999402941D+01 -.977888703346D-08
      .976442272374D+00  .236937500000D+03 -.995164408295D+00 -.674456665256D-08
      .334656796942D-09  .000000000000D+00  .963000000000D+03  .000000000000D+00
      .200000000000D+01  .000000000000D+00 -.326000000000D-07 -.326000000000D-07
      .684000000000D+04  .100000000000D+01
C43 2024 06 16 01 00 00  .754877692088D-04  .142552636362D-11  .000000000000D+00
      .100000000000D+01 -.340000000000D+02  .403873965829D-08  .913864157996D+00
     -.174855813384D-05  .550912111066D-03  .389013439417D-05  .528261475182D+04
      .360000000000D+04  .107102096081D-07  .105813443843D+01 -.847503542900D-07
      .951715769136D+00  .278093750000D+03  .913135209324D+00 -.710065291355D-08
     -.153934983439D-09  .000000000000D+00  .963000000000D+03  .000000000000D+00
      .200000000000D+01  .000000000000D+00 -.350000000000D-08 -.350000000000D-08
      .684000000000D+04  .100000000000D+01
